[{"OBJECT_NAME":"STARLINK-5492","OBJECT_ID":"2023-013A","EPOCH":"2026-03-09T08:24:29.316384","MEAN_MOTION":15.0254349,"ECCENTRICITY":0.00012437,"INCLINATION":43.0035,"RA_OF_ASC_NODE":302.5875,"ARG_OF_PERICENTER":267.5983,"MEAN_ANOMALY":92.4717,"EPHEMERIS_TYPE":0,"CLASSIFICATION_TYPE":"U","NORAD_CAT_ID":55331,"ELEMENT_SET_NO":999,"REV_AT_EPOCH":17273,"BSTAR":-5.7176585e-5,"MEAN_MOTION_DOT":-9.76e-6,"MEAN_MOTION_DDOT":0},{"OBJECT_NAME":"TITAN 4B DEB","OBJECT_ID":"2000-047C","EPOCH":"2026-03-09T02:32:29.436864","MEAN_MOTION":14.9171765,"ECCENTRICITY":0.00575622,"INCLINATION":67.9942,"RA_OF_ASC_NODE":238.0618,"ARG_OF_PERICENTER":121.1285,"MEAN_ANOMALY":239.5519,"EPHEMERIS_TYPE":0,"CLASSIFICATION_TYPE":"U","NORAD_CAT_ID":27469,"ELEMENT_SET_NO":999,"REV_AT_EPOCH":28480,"BSTAR":9.2128473e-5,"MEAN_MOTION_DOT":8.38e-6,"MEAN_MOTION_DDOT":0}]
